{
    "links": {
        "self": "http://www.neowsapp.com/rest/v1/neo/3648645?api_key=iIulBulltgU6a56xZRHN4H3l9WmuAYTsLGpBGhQ2"
    },
    "id": "3648645",
    "neo_reference_id": "3648645",
    "name": "(2013 SN20)",
    "designation": "2013 SN20",
    "nasa_jpl_url": "http://ssd.jpl.nasa.gov/sbdb.cgi?sstr=3648645",
    "absolute_magnitude_h": 23.1,
    "estimated_diameter": {
        "kilometers": {
            "estimated_diameter_min": 0.063760979,
            "estimated_diameter_max": 0.1425738833
        },
        "meters": {
            "estimated_diameter_min": 63.7609789875,
            "estimated_diameter_max": 142.5738833281
        },
        "miles": {
            "estimated_diameter_min": 0.0396192233,
            "estimated_diameter_max": 0.0885912765
        },
        "feet": {
            "estimated_diameter_min": 209.1895703015,
            "estimated_diameter_max": 467.7620993781
        }
    },
    "is_potentially_hazardous_asteroid": false,
    "close_approach_data": [
        {
            "close_approach_date": "2013-09-25",
            "close_approach_date_full": "2013-Sep-25 16:11",
            "epoch_date_close_approach": 1380125460000,
            "relative_velocity": {
                "kilometers_per_second": "16.1543936717",
                "kilometers_per_hour": "58155.8172182496",
                "miles_per_hour": "36135.7632043063"
            },
            "miss_distance": {
                "astronomical": "0.0353958167",
                "lunar": "13.7689726963",
                "kilometers": "5295138.785230429",
                "miles": "3290246.6703767602"
            },
            "orbiting_body": "Earth"
        }
    ],
    "orbital_data": {
        "orbit_id": "12",
        "orbit_determination_date": "2017-04-06 08:44:32",
        "first_observation_date": "2013-09-26",
        "last_observation_date": "2013-10-09",
        "data_arc_in_days": 13,
        "observations_used": 59,
        "orbit_uncertainty": "8",
        "minimum_orbit_intersection": ".0273563",
        "jupiter_tisserand_invariant": "4.303",
        "epoch_osculation": "2456565.5",
        "eccentricity": ".3289774387316975",
        "semi_major_axis": "1.52896612171933",
        "inclination": "28.47875954692214",
        "ascending_node_longitude": "4.069941271018891",
        "orbital_period": "690.5501449088358",
        "perihelion_distance": "1.025970763088568",
        "perihelion_argument": "349.9784493549863",
        "aphelion_distance": "2.031961480350092",
        "perihelion_time": "2456552.214498826744",
        "mean_anomaly": "6.926043615563309",
        "mean_motion": ".5213234732541053",
        "equinox": "J2000",
        "orbit_class": {
            "orbit_class_type": "AMO",
            "orbit_class_description": "Near-Earth asteroid orbits similar to that of 1221 Amor",
            "orbit_class_range": "1.017 AU < q (perihelion) < 1.3 AU"
        }
    },
    "is_sentry_object": false
}